[
  {
    "name": "ONEWEB-0522",
    "noradId": "54140",
    "line1": "1 54140U 22138AD  26164.88235957  .00000062  00000+0  12251-3 0  9997",
    "line2": "2 54140  87.9176 305.6152 0001702  97.6318 262.5008 13.19724590176378"
  },
  {
    "name": "ONEWEB-0523",
    "noradId": "54141",
    "line1": "1 54141U 22138AE  26164.84753602 -.00000085  00000+0 -24167-3 0  9992",
    "line2": "2 54141  87.9194 275.1057 0002791 100.6553 259.4894 13.20770381178864"
  },
  {
    "name": "ONEWEB-0524",
    "noradId": "54142",
    "line1": "1 54142U 22138AF  26164.83743811 -.00000096  00000+0 -26828-3 0  9991",
    "line2": "2 54142  87.9193 275.1048 0002532 118.5332 241.6057 13.20770707178866"
  },
  {
    "name": "ONEWEB-0525",
    "noradId": "54143",
    "line1": "1 54143U 22138AG  26164.90130674 -.00000017  00000+0 -74634-4 0  9999",
    "line2": "2 54143  87.9174 305.6192 0001522 104.8019 255.3283 13.19725067176399"
  },
  {
    "name": "ONEWEB-0526",
    "noradId": "54144",
    "line1": "1 54144U 22138AH  26164.93447928 -.00000034  00000+0 -11796-3 0  9994",
    "line2": "2 54144  87.9175 305.6129 0001757 102.0697 258.0633 13.19725957176378"
  },
  {
    "name": "ONEWEB-0529",
    "noradId": "54145",
    "line1": "1 54145U 22138AJ  26164.93763679  .00000001  00000+0 -28974-4 0  9999",
    "line2": "2 54145  87.9166 305.6216 0001623 101.2767 258.8549 13.19724647176398"
  },
  {
    "name": "ONEWEB-0531",
    "noradId": "54146",
    "line1": "1 54146U 22138AK  26164.82397890 -.00000040  00000+0 -13063-3 0  9992",
    "line2": "2 54146  87.9191 275.1054 0002796 106.2320 253.9121 13.20771714178865"
  },
  {
    "name": "ONEWEB-0535",
    "noradId": "54147",
    "line1": "1 54147U 22138AL  26164.89498851 -.00000049  00000+0 -15407-3 0  9992",
    "line2": "2 54147  87.9175 305.6143 0002176  96.1192 264.0189 13.19724700176408"
  },
  {
    "name": "ONEWEB-0536",
    "noradId": "54148",
    "line1": "1 54148U 22138AM  26164.81050096  .00000004  00000+0 -22661-4 0  9991",
    "line2": "2 54148  87.9180 275.1309 0002919 110.2106 249.9341 13.20770919178856"
  },
  {
    "name": "ONEWEB-0527",
    "noradId": "54642",
    "line1": "1 54642U 22166A   26164.91668981 -.00031332  00000+0 -76150-1 0  9998",
    "line2": "2 54642  87.9257 244.6481 0002061 100.8461 235.5908 13.21833124  5228"
  },
  {
    "name": "ONEWEB-0528",
    "noradId": "54643",
    "line1": "1 54643U 22166B   26164.92251629  .00000005  00000+0 -19327-4 0  9995",
    "line2": "2 54643  87.9254 244.6490 0001852 102.8218 257.3123 13.21824811171111"
  },
  {
    "name": "ONEWEB-0539",
    "noradId": "54644",
    "line1": "1 54644U 22166C   26164.73329847 -.00000066  00000+0 -19027-3 0  9997",
    "line2": "2 54644  87.9261 244.6583 0001995  92.7561 267.3802 13.21826484171088"
  },
  {
    "name": "ONEWEB-0540",
    "noradId": "54645",
    "line1": "1 54645U 22166D   26164.74016035 -.00000010  00000+0 -54583-4 0  9997",
    "line2": "2 54645  87.9253 244.6873 0002038  95.1683 264.9684 13.21826928171076"
  },
  {
    "name": "ONEWEB-0542",
    "noradId": "54646",
    "line1": "1 54646U 22166E   26164.74338235 -.00000019  00000+0 -77244-4 0  9995",
    "line2": "2 54646  87.9263 244.6549 0002041  90.0467 270.0901 13.21827516171081"
  },
  {
    "name": "ONEWEB-0545",
    "noradId": "54647",
    "line1": "1 54647U 22166F   26164.93514162  .00000091  00000+0  18922-3 0  9997",
    "line2": "2 54647  87.9254 244.6288 0002202  85.7528 274.3858 13.21828190171076"
  },
  {
    "name": "ONEWEB-0580",
    "noradId": "54648",
    "line1": "1 54648U 22166G   26164.90990963 -.00000070  00000+0 -20185-3 0  9995",
    "line2": "2 54648  87.9253 244.6337 0002280  89.4714 270.6681 13.21827052171119"
  },
  {
    "name": "ONEWEB-0582",
    "noradId": "54649",
    "line1": "1 54649U 22166H   26164.72488850  .00000013  00000+0 -97880-6 0  9998",
    "line2": "2 54649  87.9255 244.6629 0002216  87.6962 272.4426 13.21826383171067"
  },
  {
    "name": "ONEWEB-0583",
    "noradId": "54650",
    "line1": "1 54650U 22166J   26164.73665427 -.00000058  00000+0 -17251-3 0  9999",
    "line2": "2 54650  87.9252 244.6841 0002057  95.8163 264.3205 13.21827596171072"
  },
  {
    "name": "ONEWEB-0584",
    "noradId": "54651",
    "line1": "1 54651U 22166K   26164.90823147 -.00000050  00000+0 -15196-3 0  9992",
    "line2": "2 54651  87.9251 244.6354 0002127  96.2195 263.9181 13.21825213171082"
  },
  {
    "name": "ONEWEB-0585",
    "noradId": "54652",
    "line1": "1 54652U 22166L   26164.93179350  .00000074  00000+0  14770-3 0  9997",
    "line2": "2 54652  87.9256 244.6177 0001999 103.2992 256.8365 13.21826482171096"
  },
  {
    "name": "ONEWEB-0586",
    "noradId": "54653",
    "line1": "1 54653U 22166M   26164.71814256  .00000013  00000+0 -79463-6 0  9992",
    "line2": "2 54653  87.9255 244.6857 0002011  94.1045 266.0319 13.21823888171060"
  },
  {
    "name": "ONEWEB-0587",
    "noradId": "54654",
    "line1": "1 54654U 22166N   26164.72823437 -.00000009  00000+0 -53076-4 0  9991",
    "line2": "2 54654  87.9265 244.6569 0001994 109.1002 251.0348 13.21823975171222"
  },
  {
    "name": "ONEWEB-0589",
    "noradId": "54655",
    "line1": "1 54655U 22166P   26164.94186966  .00000030  00000+0  40645-4 0  9995",
    "line2": "2 54655  87.9252 244.6272 0002514  80.6189 279.5229 13.21823796171110"
  },
  {
    "name": "ONEWEB-0590",
    "noradId": "54656",
    "line1": "1 54656U 22166Q   26164.73988702 -.00000059  00000+0 -17337-3 0  9995",
    "line2": "2 54656  87.9262 244.6571 0002488 101.8400 258.3013 13.21826686171078"
  },
  {
    "name": "ONEWEB-0591",
    "noradId": "54657",
    "line1": "1 54657U 22166R   26164.75180652 -.00000065  00000+0 -18989-3 0  9997",
    "line2": "2 54657  87.9253 244.6696 0002087  98.6862 261.4508 13.21826357171100"
  },
  {
    "name": "ONEWEB-0592",
    "noradId": "54658",
    "line1": "1 54658U 22166S   26164.75515958 -.00000081  00000+0 -22672-3 0  9991",
    "line2": "2 54658  87.9262 244.6469 0002025  98.1258 262.0106 13.21827029170988"
  },
  {
    "name": "ONEWEB-0593",
    "noradId": "54659",
    "line1": "1 54659U 22166T   26164.92840622 -.00000197  00000+0 -50959-3 0  9997",
    "line2": "2 54659  87.9254 244.6242 0001926  94.4930 265.6424 13.21825965171119"
  },
  {
    "name": "ONEWEB-0594",
    "noradId": "54660",
    "line1": "1 54660U 22166U   26164.72152296  .00001077  00000+0  25766-2 0  9993",
    "line2": "2 54660  87.9255 244.6819 0001916 102.3595 257.7753 13.21820734171102"
  },
  {
    "name": "ONEWEB-0595",
    "noradId": "54661",
    "line1": "1 54661U 22166V   26164.92505234  .00000008  00000+0 -13191-4 0  9995",
    "line2": "2 54661  87.9262 244.6217 0002093 105.6933 254.4432 13.21827032171108"
  },
  {
    "name": "ONEWEB-0596",
    "noradId": "54662",
    "line1": "1 54662U 22166W   26164.74843753 -.00000067  00000+0 -19487-3 0  9996",
    "line2": "2 54662  87.9256 244.6685 0002041 101.7946 258.3417 13.21826407171083"
  }
]